[{"OBJECT_NAME":"STARLINK-36953","OBJECT_ID":"2026-039AA","EPOCH":"2026-03-03T14:00:03.000384","MEAN_MOTION":16.04501255,"ECCENTRICITY":0.0001754,"INCLINATION":42.9993,"RA_OF_ASC_NODE":92.9231,"ARG_OF_PERICENTER":282.6198,"MEAN_ANOMALY":0.3392,"EPHEMERIS_TYPE":0,"CLASSIFICATION_TYPE":"U","NORAD_CAT_ID":68010,"ELEMENT_SET_NO":999,"REV_AT_EPOCH":189,"BSTAR":-0.0016099,"MEAN_MOTION_DOT":-0.01119137,"MEAN_MOTION_DDOT":0.00042331},{"OBJECT_NAME":"STARLINK-36991","OBJECT_ID":"2026-039AB","EPOCH":"2026-03-03T14:00:03.000384","MEAN_MOTION":16.04622844,"ECCENTRICITY":0.0001787,"INCLINATION":42.9993,"RA_OF_ASC_NODE":92.9214,"ARG_OF_PERICENTER":281.7453,"MEAN_ANOMALY":1.954,"EPHEMERIS_TYPE":0,"CLASSIFICATION_TYPE":"U","NORAD_CAT_ID":68011,"ELEMENT_SET_NO":999,"REV_AT_EPOCH":189,"BSTAR":-0.0015891,"MEAN_MOTION_DOT":-0.01112963,"MEAN_MOTION_DDOT":0.00041964},{"OBJECT_NAME":"STARLINK-36936","OBJECT_ID":"2026-039AC","EPOCH":"2026-03-03T14:00:03.000384","MEAN_MOTION":16.04866317,"ECCENTRICITY":0.000187,"INCLINATION":42.9993,"RA_OF_ASC_NODE":92.9175,"ARG_OF_PERICENTER":280.5022,"MEAN_ANOMALY":4.6506,"EPHEMERIS_TYPE":0,"CLASSIFICATION_TYPE":"U","NORAD_CAT_ID":68012,"ELEMENT_SET_NO":999,"REV_AT_EPOCH":189,"BSTAR":-0.0015645,"MEAN_MOTION_DOT":-0.01112236,"MEAN_MOTION_DDOT":0.00042031},{"OBJECT_NAME":"STARLINK-36967","OBJECT_ID":"2026-039AD","EPOCH":"2026-03-03T14:00:03.000384","MEAN_MOTION":16.04369451,"ECCENTRICITY":0.0001731,"INCLINATION":42.9993,"RA_OF_ASC_NODE":92.925,"ARG_OF_PERICENTER":283.155,"MEAN_ANOMALY":359.0318,"EPHEMERIS_TYPE":0,"CLASSIFICATION_TYPE":"U","NORAD_CAT_ID":68013,"ELEMENT_SET_NO":999,"REV_AT_EPOCH":189,"BSTAR":-0.001632,"MEAN_MOTION_DOT":-0.0112537,"MEAN_MOTION_DDOT":0.00042698},{"OBJECT_NAME":"STARLINK-36985","OBJECT_ID":"2026-039AE","EPOCH":"2026-03-03T14:00:03.000384","MEAN_MOTION":16.04734324,"ECCENTRICITY":0.000176,"INCLINATION":42.9993,"RA_OF_ASC_NODE":92.9195,"ARG_OF_PERICENTER":282.4628,"MEAN_ANOMALY":1.9469,"EPHEMERIS_TYPE":0,"CLASSIFICATION_TYPE":"U","NORAD_CAT_ID":68014,"ELEMENT_SET_NO":999,"REV_AT_EPOCH":189,"BSTAR":-0.0015729,"MEAN_MOTION_DOT":-0.01109191,"MEAN_MOTION_DDOT":0.00041758}]
